GLOBALSTAR M075         
1 37192U 10054E   25327.48694874 -.00000092  00000+0  63589-4 0  9997
2 37192  51.9965  56.5020 0000638 115.5537 328.4537 12.62269824695960
GLOBALSTAR M073         
1 37193U 10054F   25327.42864671 -.00000092  00000+0  64032-4 0  9990
2 37193  52.0079 330.6250 0000252  18.5112 158.6389 12.62264469697941
GLOBALSTAR M083         
1 37739U 11033A   25327.28215177 -.00000081  00000+0  12591-3 0  9999
2 37739  51.9865 279.5806 0000433  41.2257 131.7929 12.62264620666947
GLOBALSTAR M088         
1 37740U 11033B   25326.92379488 -.00000079  00000+0  13585-3 0  9998
2 37740  52.0191 186.6008 0001126  85.2173  17.5530 12.62270414662448
GLOBALSTAR M091         
1 37741U 11033C   25327.47311656 -.00000110  00000+0 -32069-4 0  9999
2 37741  51.9963 148.1978 0001027 105.2175 274.7202 12.62261982663307
GLOBALSTAR M085         
1 37742U 11033D   25327.38422610 -.00000114  00000+0 -55901-4 0  9997
2 37742  52.0114  99.5786 0000854 126.5136 269.7826 12.62266848663801
GLOBALSTAR M081         
1 37743U 11033E   25327.41023346 -.00000119  00000+0 -84238-4 0  9995
2 37743  51.9947 102.1692 0000727 111.9821 282.8324 12.62270570663951
GLOBALSTAR M089         
1 37744U 11033F   25327.45971374 -.00000104  00000+0 -19256-5 0  9996
2 37744  51.9945  56.2158 0000661  95.7130 345.1097 12.62272482664804
